NORAD_CAT_ID,OBJECT_NAME,OBJECT_TYPE,EPOCH,MEAN_MOTION,ECCENTRICITY,INCLINATION,RA_OF_ASC_NODE,ARG_OF_PERICENTER,MEAN_ANOMALY,BSTAR,MEAN_MOTION_DOT,MEAN_MOTION_DDOT,TLE_LINE0,TLE_LINE1,TLE_LINE2,SEMIMAJOR_AXIS,PERIOD,APOGEE,PERIGEE,DECAYED
56468.0,STARLINK-5998,PAYLOAD,2023-09-12 02:31:57,14.98331351,0.0003913,69.9983,277.6539,269.5891,90.482,-0.00022847,-2.818e-05,0.0,0 STARLINK-5998,1 56468U 23064W   23255.10552277 -.00002818  00000-0 -22847-3 0  9997,2 56468  69.9983 277.6539 0003913 269.5891  90.4820 14.98331351 19360,6950.189,96.107,574.773,569.334,0.0
56468.0,STARLINK-5998,PAYLOAD,2023-09-12 12:08:45,14.9833082,0.0003758,69.9987,276.644,270.0153,90.0576,-0.00018656,-2.319e-05,0.0,0 STARLINK-5998,1 56468U 23064W   23255.50608193 -.00002319  00000-0 -18656-3 0  9999,2 56468  69.9987 276.6440 0003758 270.0153  90.0576 14.98330820 19060,6950.19,96.107,574.667,569.443,0.0
56468.0,STARLINK-5998,PAYLOAD,2023-09-13 02:33:57,14.98320448,0.0003947,69.9979,275.1279,274.0937,85.9771,9.2682e-05,1.013e-05,0.0,0 STARLINK-5998,1 56468U 23064W   23256.10692094  .00001013  00000-0  92682-4 0  9999,2 56468  69.9979 275.1279 0003947 274.0937  85.9771 14.98320448 19514,6950.222,96.108,574.831,569.344,0.0
56468.0,STARLINK-5998,PAYLOAD,2023-09-13 12:10:46,14.98323609,0.0003803,69.9988,274.1188,271.0995,88.9728,0.00013261,1.489e-05,0.0,0 STARLINK-5998,1 56468U 23064W   23256.50747985  .00001489  00000-0  13261-3 0  9995,2 56468  69.9988 274.1188 0003803 271.0995  88.9728 14.98323609 19218,6950.213,96.107,574.721,569.434,0.0
56468.0,STARLINK-5998,PAYLOAD,2023-09-13 18:35:18,14.98321983,0.0003712,69.9992,273.4457,272.0223,88.0511,7.7673e-05,8.34e-06,0.0,0 STARLINK-5998,1 56468U 23064W   23256.77452380  .00000834  00000-0  77673-4 0  9997,2 56468  69.9992 273.4457 0003712 272.0223  88.0511 14.98321983 19256,6950.218,96.108,574.663,569.503,0.0
56468.0,STARLINK-5998,PAYLOAD,2023-09-14 02:35:59,14.98320689,0.0003582,69.9993,272.6042,269.5183,90.5566,4.6438e-05,4.61e-06,0.0,0 STARLINK-5998,1 56468U 23064W   23257.10832649  .00000461  00000-0  46438-4 0  9996,2 56468  69.9993 272.6042 0003582 269.5183  90.5566 14.98320689 19664,6950.222,96.108,574.576,569.597,0.0
56468.0,STARLINK-5998,PAYLOAD,2023-09-14 12:12:48,14.98318649,0.000353,69.9995,271.5943,266.529,93.5465,3.3903e-05,3.11e-06,0.0,0 STARLINK-5998,1 56468U 23064W   23257.50889062  .00000311  00000-0  33903-4 0  9998,2 56468  69.9995 271.5943 0003530 266.5290  93.5465 14.98318649 19364,6950.228,96.108,574.546,569.64,0.0
56468.0,STARLINK-5998,PAYLOAD,2023-09-14 18:37:20,14.98309282,0.0003162,70.0001,270.9205,271.7439,88.3358,0.00023274,2.684e-05,0.0,0 STARLINK-5998,1 56468U 23064W   23257.77593485  .00002684  00000-0  23274-3 0  9992,2 56468  70.0001 270.9205 0003162 271.7439  88.3358 14.98309282 19404,6950.257,96.108,574.32,569.924,0.0
56468.0,STARLINK-5998,PAYLOAD,2023-09-15 02:38:00,14.98328765,0.0003836,69.999,270.0786,270.259,89.8129,-1.4942e-05,-2.71e-06,0.0,0 STARLINK-5998,1 56468U 23064W   23258.10972710 -.00000271  00000-0 -14942-4 0  9997,2 56468  69.9990 270.0786 0003836 270.2590  89.8129 14.98328765 19817,6950.197,96.107,574.728,569.396,0.0
56468.0,STARLINK-5998,PAYLOAD,2023-09-15 10:38:41,14.98324189,0.0003344,70.0,269.2384,269.2839,90.7937,-5.9637e-06,-1.64e-06,0.0,0 STARLINK-5998,1 56468U 23064W   23258.44353117 -.00000164  00000-0 -59637-5 0  9990,2 56468  70.0000 269.2384 0003344 269.2839  90.7937 14.98324189 19504,6950.211,96.107,574.4,569.752,0.0
56468.0,STARLINK-5998,PAYLOAD,2023-09-16 02:40:02,14.9832046,0.0003182,70.0018,267.5552,258.1278,101.9524,-0.00015065,-1.89e-05,0.0,0 STARLINK-5998,1 56468U 23064W   23259.11113520 -.00001890  00000-0 -15065-3 0  9999,2 56468  70.0018 267.5552 0003182 258.1278 101.9524 14.98320460 19960,6950.222,96.108,574.299,569.876,0.0
56468.0,STARLINK-5998,PAYLOAD,2023-09-16 10:40:44,14.98292506,0.0003449,69.9998,266.7127,263.0385,97.0382,-0.00031536,-3.85e-05,0.0,0 STARLINK-5998,1 56468U 23064W   23259.44495575 -.00003850  00000-0 -31536-3 0  9997,2 56468  69.9998 266.7127 0003449 263.0385  97.0382 14.98292506 19655,6950.309,96.109,574.571,569.777,0.0
56468.0,STARLINK-5998,PAYLOAD,2023-09-17 02:42:02,14.98329125,0.0003657,69.9993,265.0284,268.8239,91.2501,-2.5749e-06,-1.24e-06,0.0,0 STARLINK-5998,1 56468U 23064W   23260.11252627 -.00000124  00000-0 -25749-5 0  9994,2 56468  69.9993 265.0284 0003657 268.8239  91.2501 14.98329125 20118,6950.196,96.107,574.602,569.519,0.0
56468.0,STARLINK-5998,PAYLOAD,2023-09-17 10:42:42,14.98327279,0.000351,70.0001,264.1875,263.7446,96.3313,2.3477e-05,1.87e-06,0.0,0 STARLINK-5998,1 56468U 23064W   23260.44632676  .00000187  00000-0  23477-4 0  9998,2 56468  70.0001 264.1875 0003510 263.7446  96.3313 14.98327279 19808,6950.201,96.107,574.506,569.627,0.0
56468.0,STARLINK-5998,PAYLOAD,2023-09-18 02:44:02,14.98333208,0.0003847,69.9997,262.5041,269.9471,90.1248,-2.3947e-05,-3.79e-06,0.0,0 STARLINK-5998,1 56468U 23064W   23261.11392359 -.00000379  00000-0 -23947-4 0  9991,2 56468  69.9997 262.5041 0003847 269.9471  90.1248 14.98333208 20265,6950.183,96.107,574.722,569.374,0.0
56468.0,STARLINK-5998,PAYLOAD,2023-09-18 10:44:43,14.98334687,0.0003596,69.9998,261.6626,268.1435,91.9312,-3.4959e-05,-5.1e-06,0.0,0 STARLINK-5998,1 56468U 23064W   23261.44772225 -.00000510  00000-0 -34959-4 0  9993,2 56468  69.9998 261.6626 0003596 268.1435  91.9312 14.98334687 19954,6950.178,96.107,574.543,569.544,0.0
56468.0,STARLINK-5998,PAYLOAD,2023-09-18 17:09:15,14.9831901,0.0003781,69.9997,260.989,272.0684,88.0042,0.00022657,2.611e-05,0.0,0 STARLINK-5998,1 56468U 23064W   23261.71476610  .00002611  00000-0  22657-3 0  9995,2 56468  69.9997 260.9890 0003781 272.0684  88.0042 14.98319010 20350,6950.227,96.108,574.72,569.464,0.0
56468.0,STARLINK-5998,PAYLOAD,2023-09-19 02:46:03,14.98331442,0.0003842,69.9997,259.9791,268.7193,91.3526,2.8414e-05,2.46e-06,0.0,0 STARLINK-5998,1 56468U 23064W   23262.11532103  .00000246  00000-0  28414-4 0  9990,2 56468  69.9997 259.9791 0003842 268.7193  91.3526 14.98331442 20417,6950.188,96.107,574.724,569.383,0.0
56468.0,STARLINK-5998,PAYLOAD,2023-09-20 02:48:05,14.98326651,0.0003781,69.9998,257.4544,269.5255,90.5471,-6.4496e-05,-8.63e-06,0.0,0 STARLINK-5998,1 56468U 23064W   23263.11672561 -.00000863  00000-0 -64496-4 0  9991,2 56468  69.9998 257.4544 0003781 269.5255  90.5471 14.98326651 20569,6950.203,96.107,574.696,569.44,0.0
56468.0,STARLINK-5998,PAYLOAD,2023-09-20 09:12:37,14.98326916,0.000375,69.9999,256.7812,269.3971,90.6758,-3.8695e-05,-5.55e-06,0.0,0 STARLINK-5998,1 56468U 23064W   23263.38376514 -.00000555  00000-0 -38695-4 0  9999,2 56468  69.9999 256.7812 0003750 269.3971  90.6758 14.98326916 20247,6950.202,96.107,574.674,569.461,0.0
56468.0,STARLINK-5998,PAYLOAD,2023-09-20 17:13:17,14.98327461,0.0003801,69.9998,255.9392,270.0452,90.0271,-3.9323e-05,-5.62e-06,0.0,0 STARLINK-5998,1 56468U 23064W   23263.71756507 -.00000562  00000-0 -39323-4 0  9997,2 56468  69.9998 255.9392 0003801 270.0452  90.0271 14.98327461 20295,6950.201,96.107,574.708,569.424,0.0
56468.0,STARLINK-5998,PAYLOAD,2023-09-21 09:14:38,14.98328554,0.0003682,69.9999,254.2561,267.9105,92.1633,-2.2925e-05,-3.67e-06,0.0,0 STARLINK-5998,1 56468U 23064W   23264.38516464 -.00000367  00000-0 -22925-4 0  9990,2 56468  69.9999 254.2561 0003682 267.9105  92.1633 14.98328554 20753,6950.197,96.107,574.621,569.503,0.0
56468.0,STARLINK-5998,PAYLOAD,2023-09-21 22:03:42,14.98328036,0.0003802,69.9995,252.9086,269.3855,90.6869,4.8889e-05,4.9e-06,0.0,0 STARLINK-5998,1 56468U 23064W   23264.91924293  .00000490  00000-0  48889-4 0  9994,2 56468  69.9995 252.9086 0003802 269.3855  90.6869 14.98328036 20476,6950.199,96.107,574.706,569.421,0.0
56468.0,STARLINK-5998,PAYLOAD,2023-09-22 09:16:39,14.98317909,0.0003686,70.0002,251.7312,266.942,93.1317,-3.0168e-05,-4.53e-06,0.0,0 STARLINK-5998,1 56468U 23064W   23265.38657267 -.00000453  00000-0 -30168-4 0  9992,2 56468  70.0002 251.7312 0003686 266.9420  93.1317 14.98317909 20909,6950.23,96.108,574.657,569.533,0.0
56468.0,STARLINK-5998,PAYLOAD,2023-09-23 09:18:40,14.98327771,0.0003735,69.9999,249.2066,267.8772,92.1959,1.7597e-05,1.17e-06,0.0,0 STARLINK-5998,1 56468U 23064W   23266.38796977  .00000117  00000-0  17597-4 0  9991,2 56468  69.9999 249.2066 0003735 267.8772  92.1959 14.98327771 21050,6950.2,96.107,574.661,569.469,0.0
56468.0,STARLINK-5998,PAYLOAD,2023-09-24 07:44:32,14.98341764,0.0003718,70.0002,246.8494,273.6582,86.4152,0.00012804,1.435e-05,0.0,0 STARLINK-5998,1 56468U 23064W   23267.32259678  .00001435  00000-0  12804-3 0  9997,2 56468  70.0002 246.8494 0003718 273.6582  86.4152 14.98341764 21195,6950.157,96.106,574.606,569.437,0.0
56468.0,STARLINK-5998,PAYLOAD,2023-09-24 22:09:45,14.98333636,0.000326,70.0013,245.3365,261.2867,98.7923,0.00010937,1.212e-05,0.0,0 STARLINK-5998,1 56468U 23064W   23267.92344093  .00001212  00000-0  10937-3 0  9997,2 56468  70.0013 245.3365 0003260 261.2867  98.7923 14.98333636 20920,6950.182,96.107,574.312,569.781,0.0
56468.0,STARLINK-5998,PAYLOAD,2023-09-25 02:58:09,14.98332863,0.0003863,69.9999,244.8297,266.3113,93.7604,7.0969e-05,7.54e-06,0.0,0 STARLINK-5998,1 56468U 23064W   23268.12372130  .00000754  00000-0  70969-4 0  9995,2 56468  69.9999 244.8297 0003863 266.3113  93.7604 14.98332863 21313,6950.184,96.107,574.734,569.364,0.0
56468.0,STARLINK-5998,PAYLOAD,2023-09-25 07:46:33,14.98335562,0.0003786,70.0001,244.3244,266.6652,93.4074,0.0001075,1.19e-05,0.0,0 STARLINK-5998,1 56468U 23064W   23268.32399798  .00001190  00000-0  10750-3 0  9992,2 56468  70.0001 244.3244 0003786 266.6652  93.4074 14.98335562 20981,6950.176,96.107,574.672,569.409,0.0
56468.0,STARLINK-5998,PAYLOAD,2023-09-25 22:11:46,14.98335256,0.0003851,70.0007,242.8113,267.4957,92.5761,-1.8763e-05,-3.17e-06,0.0,0 STARLINK-5998,1 56468U 23064W   23268.92483837 -.00000317  00000-0 -18763-4 0  9991,2 56468  70.0007 242.8113 0003851 267.4957  92.5761 14.98335256 21079,6950.177,96.107,574.718,569.365,0.0
